[{"OBJECT_NAME":"STARLINK-36744","OBJECT_ID":"2026-039B","EPOCH":"2026-03-07T06:00:00.999648","MEAN_MOTION":15.91525894,"ECCENTRICITY":0.00015689,"INCLINATION":42.9972,"RA_OF_ASC_NODE":70.0068,"ARG_OF_PERICENTER":272.3217,"MEAN_ANOMALY":215.2224,"EPHEMERIS_TYPE":0,"CLASSIFICATION_TYPE":"U","NORAD_CAT_ID":67987,"ELEMENT_SET_NO":999,"REV_AT_EPOCH":248,"BSTAR":-0.0050006883,"MEAN_MOTION_DOT":-0.0167075,"MEAN_MOTION_DDOT":0.00077018711},{"OBJECT_NAME":"STARLINK-36734","OBJECT_ID":"2026-039C","EPOCH":"2026-03-07T06:00:00.999648","MEAN_MOTION":15.91677535,"ECCENTRICITY":0.00015905,"INCLINATION":42.9973,"RA_OF_ASC_NODE":69.9998,"ARG_OF_PERICENTER":276.8374,"MEAN_ANOMALY":213.4546,"EPHEMERIS_TYPE":0,"CLASSIFICATION_TYPE":"U","NORAD_CAT_ID":67988,"ELEMENT_SET_NO":999,"REV_AT_EPOCH":248,"BSTAR":-0.0049757306,"MEAN_MOTION_DOT":-0.01675464,"MEAN_MOTION_DDOT":0.00077533428},{"OBJECT_NAME":"STARLINK-36957","OBJECT_ID":"2026-039D","EPOCH":"2026-03-07T06:00:00.999648","MEAN_MOTION":15.91833603,"ECCENTRICITY":0.0001599,"INCLINATION":42.9971,"RA_OF_ASC_NODE":69.9935,"ARG_OF_PERICENTER":273.3952,"MEAN_ANOMALY":219.2316,"EPHEMERIS_TYPE":0,"CLASSIFICATION_TYPE":"U","NORAD_CAT_ID":67989,"ELEMENT_SET_NO":999,"REV_AT_EPOCH":248,"BSTAR":-0.0048985013,"MEAN_MOTION_DOT":-0.01663032,"MEAN_MOTION_DDOT":0.0007659196},{"OBJECT_NAME":"STARLINK-36951","OBJECT_ID":"2026-039E","EPOCH":"2026-03-07T06:00:00.999648","MEAN_MOTION":15.91979762,"ECCENTRICITY":0.00016031,"INCLINATION":42.9972,"RA_OF_ASC_NODE":69.9868,"ARG_OF_PERICENTER":270.2374,"MEAN_ANOMALY":225.0761,"EPHEMERIS_TYPE":0,"CLASSIFICATION_TYPE":"U","NORAD_CAT_ID":67990,"ELEMENT_SET_NO":999,"REV_AT_EPOCH":248,"BSTAR":-0.0048535067,"MEAN_MOTION_DOT":-0.01660357,"MEAN_MOTION_DDOT":0.00076473589},{"OBJECT_NAME":"STARLINK-36941","OBJECT_ID":"2026-039F","EPOCH":"2026-03-07T06:00:00.999648","MEAN_MOTION":15.92138057,"ECCENTRICITY":0.00015242,"INCLINATION":42.9971,"RA_OF_ASC_NODE":69.9811,"ARG_OF_PERICENTER":270.9078,"MEAN_ANOMALY":226.5449,"EPHEMERIS_TYPE":0,"CLASSIFICATION_TYPE":"U","NORAD_CAT_ID":67991,"ELEMENT_SET_NO":999,"REV_AT_EPOCH":248,"BSTAR":-0.0047840613,"MEAN_MOTION_DOT":-0.01650255,"MEAN_MOTION_DDOT":0.00075734747},{"OBJECT_NAME":"STARLINK-36950","OBJECT_ID":"2026-039G","EPOCH":"2026-03-07T06:00:00.999648","MEAN_MOTION":15.92287581,"ECCENTRICITY":0.00015467,"INCLINATION":42.9971,"RA_OF_ASC_NODE":69.9746,"ARG_OF_PERICENTER":274.1698,"MEAN_ANOMALY":225.8685,"EPHEMERIS_TYPE":0,"CLASSIFICATION_TYPE":"U","NORAD_CAT_ID":67992,"ELEMENT_SET_NO":999,"REV_AT_EPOCH":248,"BSTAR":-0.0047541026,"MEAN_MOTION_DOT":-0.01652735,"MEAN_MOTION_DDOT":0.00076055293},{"OBJECT_NAME":"STARLINK-36975","OBJECT_ID":"2026-039H","EPOCH":"2026-03-07T06:00:00.999648","MEAN_MOTION":15.92430802,"ECCENTRICITY":0.00015053,"INCLINATION":42.997,"RA_OF_ASC_NODE":69.9684,"ARG_OF_PERICENTER":273.9384,"MEAN_ANOMALY":228.5531,"EPHEMERIS_TYPE":0,"CLASSIFICATION_TYPE":"U","NORAD_CAT_ID":67993,"ELEMENT_SET_NO":999,"REV_AT_EPOCH":248,"BSTAR":-0.0046912712,"MEAN_MOTION_DOT":-0.01643253,"MEAN_MOTION_DDOT":0.00075358489},{"OBJECT_NAME":"STARLINK-36993","OBJECT_ID":"2026-039J","EPOCH":"2026-03-07T06:00:00.999648","MEAN_MOTION":15.9257728,"ECCENTRICITY":0.00015799,"INCLINATION":42.9971,"RA_OF_ASC_NODE":69.9621,"ARG_OF_PERICENTER":274.5173,"MEAN_ANOMALY":230.6201,"EPHEMERIS_TYPE":0,"CLASSIFICATION_TYPE":"U","NORAD_CAT_ID":67994,"ELEMENT_SET_NO":999,"REV_AT_EPOCH":248,"BSTAR":-0.0046639543,"MEAN_MOTION_DOT":-0.01646238,"MEAN_MOTION_DDOT":0.00075719283},{"OBJECT_NAME":"STARLINK-36968","OBJECT_ID":"2026-039K","EPOCH":"2026-03-07T06:00:00.999648","MEAN_MOTION":15.92812115,"ECCENTRICITY":0.00015907,"INCLINATION":42.9972,"RA_OF_ASC_NODE":69.9456,"ARG_OF_PERICENTER":272.7427,"MEAN_ANOMALY":238.7917,"EPHEMERIS_TYPE":0,"CLASSIFICATION_TYPE":"U","NORAD_CAT_ID":67995,"ELEMENT_SET_NO":999,"REV_AT_EPOCH":248,"BSTAR":-0.0046410047,"MEAN_MOTION_DOT":-0.0165829,"MEAN_MOTION_DDOT":0.00076921259},{"OBJECT_NAME":"STARLINK-36979","OBJECT_ID":"2026-039L","EPOCH":"2026-03-07T06:00:00.999648","MEAN_MOTION":15.92665305,"ECCENTRICITY":0.00015485,"INCLINATION":42.9969,"RA_OF_ASC_NODE":69.9517,"ARG_OF_PERICENTER":272.103,"MEAN_ANOMALY":236.9404,"EPHEMERIS_TYPE":0,"CLASSIFICATION_TYPE":"U","NORAD_CAT_ID":67996,"ELEMENT_SET_NO":999,"REV_AT_EPOCH":248,"BSTAR":-0.0046737984,"MEAN_MOTION_DOT":-0.01657193,"MEAN_MOTION_DDOT":0.00076716837},{"OBJECT_NAME":"STARLINK-36994","OBJECT_ID":"2026-039M","EPOCH":"2026-03-07T06:00:00.999648","MEAN_MOTION":15.93093184,"ECCENTRICITY":0.00013077,"INCLINATION":42.997,"RA_OF_ASC_NODE":69.9317,"ARG_OF_PERICENTER":265.8792,"MEAN_ANOMALY":251.0312,"EPHEMERIS_TYPE":0,"CLASSIFICATION_TYPE":"U","NORAD_CAT_ID":67997,"ELEMENT_SET_NO":999,"REV_AT_EPOCH":248,"BSTAR":-0.0045956542,"MEAN_MOTION_DOT":-0.01666378,"MEAN_MOTION_DDOT":0.00077829934},{"OBJECT_NAME":"STARLINK-36988","OBJECT_ID":"2026-039N","EPOCH":"2026-03-07T06:00:00.999648","MEAN_MOTION":15.92945823,"ECCENTRICITY":0.00015153,"INCLINATION":42.9971,"RA_OF_ASC_NODE":69.9383,"ARG_OF_PERICENTER":271.0757,"MEAN_ANOMALY":243.3167,"EPHEMERIS_TYPE":0,"CLASSIFICATION_TYPE":"U","NORAD_CAT_ID":67998,"ELEMENT_SET_NO":999,"REV_AT_EPOCH":248,"BSTAR":-0.0046029257,"MEAN_MOTION_DOT":-0.01656291,"MEAN_MOTION_DDOT":0.00076851503},{"OBJECT_NAME":"STARLINK-36926","OBJECT_ID":"2026-039P","EPOCH":"2026-03-07T06:00:00.999648","MEAN_MOTION":15.93237064,"ECCENTRICITY":0.00014227,"INCLINATION":42.9972,"RA_OF_ASC_NODE":69.9255,"ARG_OF_PERICENTER":271.3753,"MEAN_ANOMALY":248.1457,"EPHEMERIS_TYPE":0,"CLASSIFICATION_TYPE":"U","NORAD_CAT_ID":67999,"ELEMENT_SET_NO":999,"REV_AT_EPOCH":248,"BSTAR":-0.0045664435,"MEAN_MOTION_DOT":-0.01668399,"MEAN_MOTION_DDOT":0.00078115011},{"OBJECT_NAME":"STARLINK-36931","OBJECT_ID":"2026-039Q","EPOCH":"2026-03-07T06:00:00.999648","MEAN_MOTION":15.93379987,"ECCENTRICITY":0.00014664,"INCLINATION":42.9973,"RA_OF_ASC_NODE":69.9202,"ARG_OF_PERICENTER":268.87,"MEAN_ANOMALY":252.795,"EPHEMERIS_TYPE":0,"CLASSIFICATION_TYPE":"U","NORAD_CAT_ID":68000,"ELEMENT_SET_NO":999,"REV_AT_EPOCH":248,"BSTAR":-0.0044999927,"MEAN_MOTION_DOT":-0.01656743,"MEAN_MOTION_DDOT":0.00077220593},{"OBJECT_NAME":"STARLINK-36903","OBJECT_ID":"2026-039R","EPOCH":"2026-03-07T06:00:00.999648","MEAN_MOTION":15.9351434,"ECCENTRICITY":0.00014934,"INCLINATION":42.9974,"RA_OF_ASC_NODE":69.9134,"ARG_OF_PERICENTER":271.7115,"MEAN_ANOMALY":252.6197,"EPHEMERIS_TYPE":0,"CLASSIFICATION_TYPE":"U","NORAD_CAT_ID":68001,"ELEMENT_SET_NO":999,"REV_AT_EPOCH":248,"BSTAR":-0.0044499508,"MEAN_MOTION_DOT":-0.016501,"MEAN_MOTION_DDOT":0.00076752765},{"OBJECT_NAME":"STARLINK-36898","OBJECT_ID":"2026-039S","EPOCH":"2026-03-07T06:00:00.999648","MEAN_MOTION":15.93792379,"ECCENTRICITY":0.00015243,"INCLINATION":42.9972,"RA_OF_ASC_NODE":69.9003,"ARG_OF_PERICENTER":273.5406,"MEAN_ANOMALY":255.8337,"EPHEMERIS_TYPE":0,"CLASSIFICATION_TYPE":"U","NORAD_CAT_ID":68002,"ELEMENT_SET_NO":999,"REV_AT_EPOCH":248,"BSTAR":-0.0043864458,"MEAN_MOTION_DOT":-0.01650721,"MEAN_MOTION_DDOT":0.00077018557}]
