STARLINK-36744          
1 67987U 26039B   26066.25001157 -.01670750  77019-3 -50007-2 0  9997
2 67987  42.9972  70.0068 0001568 272.3217 215.2224 15.91525894  2488
STARLINK-36734          
1 67988U 26039C   26066.25001157 -.01675464  77533-3 -49757-2 0  9996
2 67988  42.9973  69.9998 0001590 276.8374 213.4546 15.91677535  2484
STARLINK-36957          
1 67989U 26039D   26066.25001157 -.01663032  76592-3 -48985-2 0  9991
2 67989  42.9971  69.9935 0001599 273.3952 219.2316 15.91833603  2486
STARLINK-36951          
1 67990U 26039E   26066.25001157 -.01660357  76474-3 -48535-2 0  9990
2 67990  42.9972  69.9868 0001603 270.2374 225.0761 15.91979762  2480
STARLINK-36941          
1 67991U 26039F   26066.25001157 -.01650255  75735-3 -47841-2 0  9995
2 67991  42.9971  69.9811 0001524 270.9078 226.5449 15.92138057  2482
STARLINK-36950          
1 67992U 26039G   26066.25001157 -.01652735  76055-3 -47541-2 0  9994
2 67992  42.9971  69.9746 0001546 274.1698 225.8685 15.92287581  2489
STARLINK-36975          
1 67993U 26039H   26066.25001157 -.01643253  75358-3 -46913-2 0  9997
2 67993  42.9970  69.9684 0001505 273.9384 228.5531 15.92430802  2480
STARLINK-36993          
1 67994U 26039J   26066.25001157 -.01646238  75719-3 -46640-2 0  9992
2 67994  42.9971  69.9621 0001579 274.5173 230.6201 15.92577280  2487
STARLINK-36968          
1 67995U 26039K   26066.25001157 -.01658290  76921-3 -46410-2 0  9995
2 67995  42.9972  69.9456 0001590 272.7427 238.7917 15.92812115  2482
STARLINK-36979          
1 67996U 26039L   26066.25001157 -.01657193  76717-3 -46738-2 0  9993
2 67996  42.9969  69.9517 0001548 272.1030 236.9404 15.92665305  2482
STARLINK-36994          
1 67997U 26039M   26066.25001157 -.01666378  77830-3 -45957-2 0  9998
2 67997  42.9970  69.9317 0001307 265.8792 251.0312 15.93093184  2487
STARLINK-36988          
1 67998U 26039N   26066.25001157 -.01656291  76852-3 -46029-2 0  9996
2 67998  42.9971  69.9383 0001515 271.0757 243.3167 15.92945823  2480
STARLINK-36926          
1 67999U 26039P   26066.25001157 -.01668399  78115-3 -45664-2 0  9997
2 67999  42.9972  69.9255 0001422 271.3753 248.1457 15.93237064  2483
STARLINK-36931          
1 68000U 26039Q   26066.25001157 -.01656743  77221-3 -45000-2 0  9992
2 68000  42.9973  69.9202 0001466 268.8700 252.7950 15.93379987  2481
STARLINK-36903          
1 68001U 26039R   26066.25001157 -.01650100  76753-3 -44500-2 0  9997
2 68001  42.9974  69.9134 0001493 271.7115 252.6197 15.93514340  2486
STARLINK-36898          
1 68002U 26039S   26066.25001157 -.01650721  77019-3 -43864-2 0  9995
2 68002  42.9972  69.9003 0001524 273.5406 255.8337 15.93792379  2489
